{
    "links": {
        "self": "http://www.neowsapp.com/rest/v1/neo/3703076?api_key=iIulBulltgU6a56xZRHN4H3l9WmuAYTsLGpBGhQ2"
    },
    "id": "3703076",
    "neo_reference_id": "3703076",
    "name": "(2014 YQ34)",
    "designation": "2014 YQ34",
    "nasa_jpl_url": "http://ssd.jpl.nasa.gov/sbdb.cgi?sstr=3703076",
    "absolute_magnitude_h": 24.0,
    "estimated_diameter": {
        "kilometers": {
            "estimated_diameter_min": 0.0421264611,
            "estimated_diameter_max": 0.0941976306
        },
        "meters": {
            "estimated_diameter_min": 42.1264610556,
            "estimated_diameter_max": 94.1976305719
        },
        "miles": {
            "estimated_diameter_min": 0.0261761612,
            "estimated_diameter_max": 0.0585316759
        },
        "feet": {
            "estimated_diameter_min": 138.2101784897,
            "estimated_diameter_max": 309.0473542854
        }
    },
    "is_potentially_hazardous_asteroid": false,
    "close_approach_data": [
        {
            "close_approach_date": "2015-01-03",
            "close_approach_date_full": "2015-Jan-03 13:29",
            "epoch_date_close_approach": 1420291740000,
            "relative_velocity": {
                "kilometers_per_second": "24.9365872474",
                "kilometers_per_hour": "89771.7140907948",
                "miles_per_hour": "55780.6520138052"
            },
            "miss_distance": {
                "astronomical": "0.0795657954",
                "lunar": "30.9510944106",
                "kilometers": "11902873.516695798",
                "miles": "7396102.6414380924"
            },
            "orbiting_body": "Earth"
        },
        {
            "close_approach_date": "2015-02-15",
            "close_approach_date_full": "2015-Feb-15 14:54",
            "epoch_date_close_approach": 1424012040000,
            "relative_velocity": {
                "kilometers_per_second": "22.3336241007",
                "kilometers_per_hour": "80401.0467625499",
                "miles_per_hour": "49958.0837508744"
            },
            "miss_distance": {
                "astronomical": "0.052513657",
                "lunar": "20.427812573",
                "kilometers": "7855931.23311059",
                "miles": "4881449.312442542"
            },
            "orbiting_body": "Merc"
        }
    ],
    "orbital_data": {
        "orbit_id": "3",
        "orbit_determination_date": "2017-04-06 08:36:39",
        "first_observation_date": "2014-12-28",
        "last_observation_date": "2014-12-29",
        "data_arc_in_days": 1,
        "observations_used": 29,
        "orbit_uncertainty": "9",
        "minimum_orbit_intersection": ".00636735",
        "jupiter_tisserand_invariant": "2.848",
        "epoch_osculation": "2457020.5",
        "eccentricity": ".8298513165598489",
        "semi_major_axis": "2.508126499766779",
        "inclination": "3.423507034143126",
        "ascending_node_longitude": "272.3162163727494",
        "orbital_period": "1450.850227036126",
        "perihelion_distance": ".4267544218366719",
        "perihelion_argument": "290.6293190329142",
        "aphelion_distance": "4.589498577696886",
        "perihelion_time": "2457069.080584306437",
        "mean_anomaly": "347.9456817634135",
        "mean_motion": ".2481303674848831",
        "equinox": "J2000",
        "orbit_class": {
            "orbit_class_type": "APO",
            "orbit_class_description": "Near-Earth asteroid orbits which cross the Earth’s orbit similar to that of 1862 Apollo",
            "orbit_class_range": "a (semi-major axis) > 1.0 AU; q (perihelion) < 1.017 AU"
        }
    },
    "is_sentry_object": false
}